start=new Date('2022-08-12T00:00:00.000Z').valueOf();
sats=[{"EPHEMERIS_TYPE":"0","SITE":"AFETR","ARG_OF_PERICENTER":"86.9988","MEAN_MOTION":"15.06397124","MEAN_MOTION_DOT":"0.00009386","OBJECT_TYPE":"PAYLOAD","CENTER_NAME":"EARTH","TLE_LINE1":"1 47867U 21021H   22223.80476586  .00009386  00000-0  64820-3 0  9992","GP_ID":"210035080","EPOCH":"2022-08-11T19:18:51.770304","MEAN_ANOMALY":"273.1142","NORAD_CAT_ID":"47867","INCLINATION":"53.0565","TIME_SYSTEM":"UTC","MEAN_ELEMENT_THEORY":"SGP4","FILE":"3534491","BSTAR":"0.00064820000000","RCS_SIZE":"LARGE","CLASSIFICATION_TYPE":"U","RA_OF_ASC_NODE":"3.9723","REV_AT_EPOCH":"7903","LAUNCH_DATE":"2021-03-14","PERIAPSIS":"546.366","ELEMENT_SET_NO":"999","OBJECT_NAME":"STARLINK-2321","APOAPSIS":"548.078","COUNTRY_CODE":"US","DECAY_DATE":null,"PERIOD":"95.592","ECCENTRICITY":"0.00012360","SEMIMAJOR_AXIS":"6925.357","OBJECT_ID":"2021-021H","REF_FRAME":"TEME","MEAN_MOTION_DDOT":"0.0000000000000","TLE_LINE2":"2 47867  53.0565   3.9723 0001236  86.9988 273.1142 15.06397124 79039"},{"SEMIMAJOR_AXIS":"6925.349","ECCENTRICITY":"0.00013950","REF_FRAME":"TEME","MEAN_MOTION_DDOT":"0.0000000000000","TLE_LINE2":"2 47868  53.0551 314.3048 0001395  85.6346 274.4803 15.06399851 79727","OBJECT_ID":"2021-021J","OBJECT_NAME":"STARLINK-2323","ELEMENT_SET_NO":"999","DECAY_DATE":null,"PERIOD":"95.592","APOAPSIS":"548.180","COUNTRY_CODE":"US","FILE":"3534704","BSTAR":"0.00070061000000","RCS_SIZE":"LARGE","CLASSIFICATION_TYPE":"U","RA_OF_ASC_NODE":"314.3048","MEAN_ANOMALY":"274.4803","INCLINATION":"53.0551","NORAD_CAT_ID":"47868","TIME_SYSTEM":"UTC","MEAN_ELEMENT_THEORY":"SGP4","REV_AT_EPOCH":"7972","LAUNCH_DATE":"2021-03-14","PERIAPSIS":"546.248","MEAN_MOTION":"15.06399851","OBJECT_TYPE":"PAYLOAD","CENTER_NAME":"EARTH","MEAN_MOTION_DOT":"0.00010169","EPHEMERIS_TYPE":"0","SITE":"AFETR","ARG_OF_PERICENTER":"85.6346","GP_ID":"210040176","EPOCH":"2022-08-11T17:34:01.773408","TLE_LINE1":"1 47868U 21021J   22223.73196497  .00010169  00000-0  70061-3 0  9990"},{"APOAPSIS":"548.153","COUNTRY_CODE":"US","DECAY_DATE":null,"PERIOD":"95.592","ELEMENT_SET_NO":"999","OBJECT_NAME":"STARLINK-2324","OBJECT_ID":"2021-021K","MEAN_MOTION_DDOT":"0.0000000000000","REF_FRAME":"TEME","TLE_LINE2":"2 47869  53.0550   3.9816 0001363  88.4718 271.6427 15.06401554 79039","ECCENTRICITY":"0.00013630","SEMIMAJOR_AXIS":"6925.344","TLE_LINE1":"1 47869U 21021K   22223.80106382  .00001162  00000-0  96877-4 0  9990","GP_ID":"210040187","EPOCH":"2022-08-11T19:13:31.914048","SITE":"AFETR","EPHEMERIS_TYPE":"0","ARG_OF_PERICENTER":"88.4718","MEAN_MOTION":"15.06401554","OBJECT_TYPE":"PAYLOAD","MEAN_MOTION_DOT":"0.00001162","CENTER_NAME":"EARTH","LAUNCH_DATE":"2021-03-14","REV_AT_EPOCH":"7903","PERIAPSIS":"546.265","NORAD_CAT_ID":"47869","INCLINATION":"53.0550","MEAN_ANOMALY":"271.6427","MEAN_ELEMENT_THEORY":"SGP4","TIME_SYSTEM":"UTC","RCS_SIZE":"LARGE","FILE":"3534706","BSTAR":"0.00009687700000","RA_OF_ASC_NODE":"3.9816","CLASSIFICATION_TYPE":"U"},{"MEAN_MOTION":"15.06390956","MEAN_MOTION_DOT":"-0.00000134","OBJECT_TYPE":"PAYLOAD","CENTER_NAME":"EARTH","EPHEMERIS_TYPE":"0","SITE":"AFETR","ARG_OF_PERICENTER":"73.1934","GP_ID":"210034695","EPOCH":"2022-08-11T18:03:53.169408","TLE_LINE1":"1 47870U 21021L   22223.75269872 -.00000134  00000-0  99024-5 0  9997","RCS_SIZE":"MEDIUM","FILE":"3534483","BSTAR":"0.00000990240000","CLASSIFICATION_TYPE":"U","RA_OF_ASC_NODE":"29.1957","MEAN_ANOMALY":"286.9227","NORAD_CAT_ID":"47870","INCLINATION":"53.0563","MEAN_ELEMENT_THEORY":"SGP4","TIME_SYSTEM":"UTC","REV_AT_EPOCH":"7866","LAUNCH_DATE":"2021-03-14","PERIAPSIS":"546.156","OBJECT_NAME":"STARLINK-2326","ELEMENT_SET_NO":"999","DECAY_DATE":null,"PERIOD":"95.593","APOAPSIS":"548.326","COUNTRY_CODE":"US","SEMIMAJOR_AXIS":"6925.376","ECCENTRICITY":"0.00015670","REF_FRAME":"TEME","MEAN_MOTION_DDOT":"0.0000000000000","TLE_LINE2":"2 47870  53.0563  29.1957 0001567  73.1934 286.9227 15.06390956 78666","OBJECT_ID":"2021-021L"},{"BSTAR":"-0.00003971000000","FILE":"3534319","RCS_SIZE":"LARGE","RA_OF_ASC_NODE":"5.2022","CLASSIFICATION_TYPE":"U","NORAD_CAT_ID":"47871","INCLINATION":"53.0561","MEAN_ANOMALY":"273.9059","MEAN_ELEMENT_THEORY":"SGP4","TIME_SYSTEM":"UTC","LAUNCH_DATE":"2021-03-14","REV_AT_EPOCH":"7946","PERIAPSIS":"546.373","MEAN_MOTION":"15.06385581","CENTER_NAME":"EARTH","OBJECT_TYPE":"PAYLOAD","MEAN_MOTION_DOT":"-0.00000873","SITE":"AFETR","EPHEMERIS_TYPE":"0","ARG_OF_PERICENTER":"86.2076","GP_ID":"210027008","EPOCH":"2022-08-11T12:46:05.865312","TLE_LINE1":"1 47871U 21021M   22223.53201233 -.00000873  00000-0 -39710-4 0  9997","SEMIMAJOR_AXIS":"6925.393","ECCENTRICITY":"0.00012780","MEAN_MOTION_DDOT":"0.0000000000000","REF_FRAME":"TEME","TLE_LINE2":"2 47871  53.0561   5.2022 0001278  86.2076 273.9059 15.06385581 79460","OBJECT_ID":"2021-021M","OBJECT_NAME":"STARLINK-2327","ELEMENT_SET_NO":"999","PERIOD":"95.593","DECAY_DATE":null,"APOAPSIS":"548.143","COUNTRY_CODE":"US"},{"MEAN_ELEMENT_THEORY":"SGP4","TIME_SYSTEM":"UTC","NORAD_CAT_ID":"47872","INCLINATION":"53.0527","MEAN_ANOMALY":"26.9839","RA_OF_ASC_NODE":"286.2333","CLASSIFICATION_TYPE":"U","FILE":"3534319","RCS_SIZE":"LARGE","BSTAR":"0.00014100000000","PERIAPSIS":"433.880","REV_AT_EPOCH":"8058","LAUNCH_DATE":"2021-03-14","ARG_OF_PERICENTER":"333.0708","SITE":"AFETR","EPHEMERIS_TYPE":"0","OBJECT_TYPE":"PAYLOAD","CENTER_NAME":"EARTH","MEAN_MOTION_DOT":"0.00005722","MEAN_MOTION":"15.42111855","TLE_LINE1":"1 47872U 21021N   22223.48451837  .00005722  00000-0  14100-3 0  9990","EPOCH":"2022-08-11T11:37:42.387168","GP_ID":"210027258","ECCENTRICITY":"0.00087990","SEMIMAJOR_AXIS":"6818.015","OBJECT_ID":"2021-021N","TLE_LINE2":"2 47872  53.0527 286.2333 0008799 333.0708  26.9839 15.42111855 80587","MEAN_MOTION_DDOT":"0.0000000000000","REF_FRAME":"TEME","ELEMENT_SET_NO":"999","OBJECT_NAME":"STARLINK-2328","COUNTRY_CODE":"US","APOAPSIS":"445.879","PERIOD":"93.378","DECAY_DATE":null},{"SEMIMAJOR_AXIS":"6925.387","ECCENTRICITY":"0.00013600","TLE_LINE2":"2 47873  53.0553   4.0826 0001360  88.5540 271.5604 15.06387341 79023","REF_FRAME":"TEME","MEAN_MOTION_DDOT":"0.0000000000000","OBJECT_ID":"2021-021P","OBJECT_NAME":"STARLINK-2329","ELEMENT_SET_NO":"999","DECAY_DATE":null,"PERIOD":"95.593","COUNTRY_CODE":"US","APOAPSIS":"548.194","CLASSIFICATION_TYPE":"U","RA_OF_ASC_NODE":"4.0826","BSTAR":"0.00005849900000","FILE":"3534706","RCS_SIZE":"LARGE","MEAN_ELEMENT_THEORY":"SGP4","TIME_SYSTEM":"UTC","MEAN_ANOMALY":"271.5604","NORAD_CAT_ID":"47873","INCLINATION":"53.0553","PERIAPSIS":"546.311","REV_AT_EPOCH":"7902","LAUNCH_DATE":"2021-03-14","MEAN_MOTION_DOT":"0.00000590","OBJECT_TYPE":"PAYLOAD","CENTER_NAME":"EARTH","MEAN_MOTION":"15.06387341","ARG_OF_PERICENTER":"88.5540","EPHEMERIS_TYPE":"0","SITE":"AFETR","EPOCH":"2022-08-11T18:41:42.696960","GP_ID":"210040197","TLE_LINE1":"1 47873U 21021P   22223.77896640  .00000590  00000-0  58499-4 0  9996"},{"GP_ID":"210040548","EPOCH":"2022-08-11T14:09:00.907776","TLE_LINE1":"1 47874U 21021Q   22223.58959384  .00002090  00000-0  15921-3 0  9990","OBJECT_TYPE":"PAYLOAD","MEAN_MOTION_DOT":"0.00002090","CENTER_NAME":"EARTH","MEAN_MOTION":"15.06391272","ARG_OF_PERICENTER":"65.7418","SITE":"AFETR","EPHEMERIS_TYPE":"0","PERIAPSIS":"546.185","LAUNCH_DATE":"2021-03-14","REV_AT_EPOCH":"7962","RA_OF_ASC_NODE":"319.9461","CLASSIFICATION_TYPE":"U","BSTAR":"0.00015921000000","FILE":"3534721","RCS_SIZE":"LARGE","TIME_SYSTEM":"UTC","MEAN_ELEMENT_THEORY":"SGP4","INCLINATION":"53.0573","NORAD_CAT_ID":"47874","MEAN_ANOMALY":"294.3730","PERIOD":"95.593","DECAY_DATE":null,"COUNTRY_CODE":"US","APOAPSIS":"548.296","OBJECT_NAME":"STARLINK-2330","ELEMENT_SET_NO":"999","TLE_LINE2":"2 47874  53.0573 319.9461 0001524  65.7418 294.3730 15.06391272 79629","MEAN_MOTION_DDOT":"0.0000000000000","REF_FRAME":"TEME","OBJECT_ID":"2021-021Q","SEMIMAJOR_AXIS":"6925.375","ECCENTRICITY":"0.00015240"},{"LAUNCH_DATE":"2021-03-14","REV_AT_EPOCH":"7888","PERIAPSIS":"546.109","NORAD_CAT_ID":"47875","INCLINATION":"53.0568","MEAN_ANOMALY":"239.6248","TIME_SYSTEM":"UTC","MEAN_ELEMENT_THEORY":"SGP4","BSTAR":"0.00008093700000","FILE":"3534721","RCS_SIZE":"LARGE","RA_OF_ASC_NODE":"14.1309","CLASSIFICATION_TYPE":"U","TLE_LINE1":"1 47875U 21021R   22223.77066470  .00000924  00000-0  80937-4 0  9991","GP_ID":"210040542","EPOCH":"2022-08-11T18:29:45.430080","SITE":"AFETR","EPHEMERIS_TYPE":"0","ARG_OF_PERICENTER":"120.4901","MEAN_MOTION":"15.06394944","OBJECT_TYPE":"PAYLOAD","CENTER_NAME":"EARTH","MEAN_MOTION_DOT":"0.00000924","OBJECT_ID":"2021-021R","MEAN_MOTION_DDOT":"0.0000000000000","REF_FRAME":"TEME","TLE_LINE2":"2 47875  53.0568  14.1309 0001618 120.4901 239.6248 15.06394944 78881","ECCENTRICITY":"0.00016180","SEMIMAJOR_AXIS":"6925.364","APOAPSIS":"548.350","COUNTRY_CODE":"US","PERIOD":"95.592","DECAY_DATE":null,"ELEMENT_SET_NO":"999","OBJECT_NAME":"STARLINK-2331"},{"TLE_LINE1":"1 47876U 21021S   22223.69326392  .00007101  00000-0  49518-3 0  9998","EPOCH":"2022-08-11T16:38:18.002688","GP_ID":"210040204","ARG_OF_PERICENTER":"87.1610","EPHEMERIS_TYPE":"0","SITE":"AFETR","CENTER_NAME":"EARTH","OBJECT_TYPE":"PAYLOAD","MEAN_MOTION_DOT":"0.00007101","MEAN_MOTION":"15.06394519","PERIAPSIS":"546.168","LAUNCH_DATE":"2021-03-14","REV_AT_EPOCH":"7887","TIME_SYSTEM":"UTC","MEAN_ELEMENT_THEORY":"SGP4","MEAN_ANOMALY":"272.9555","NORAD_CAT_ID":"47876","INCLINATION":"53.0555","CLASSIFICATION_TYPE":"U","RA_OF_ASC_NODE":"14.4779","BSTAR":"0.00049518000000","FILE":"3534721","RCS_SIZE":"LARGE","COUNTRY_CODE":"US","APOAPSIS":"548.293","PERIOD":"95.592","DECAY_DATE":null,"ELEMENT_SET_NO":"999","OBJECT_NAME":"STARLINK-2332","OBJECT_ID":"2021-021S","TLE_LINE2":"2 47876  53.0555  14.4779 0001534  87.1610 272.9555 15.06394519 78873","REF_FRAME":"TEME","MEAN_MOTION_DDOT":"0.0000000000000","ECCENTRICITY":"0.00015340","SEMIMAJOR_AXIS":"6925.365"}];
